STARLINK-1559           
1 46077U 20055BC  26068.23360559  .00042685  00000+0  14779-2 0  9995
2 46077  53.0254  76.0659 0004229  33.9710 326.1559 15.29461733309518
STARLINK-30773          
1 58161U 23166M   26068.71542921  .00005904  00000+0  21136-3 0  9995
2 58161  53.1593 219.4473 0000971  52.9742 307.1347 15.30190199133184
