[{"OBJECT_NAME":"STARLINK-1559","OBJECT_ID":"2020-055BC","EPOCH":"2026-03-09T05:36:23.522976","MEAN_MOTION":15.29461733,"ECCENTRICITY":0.0004229,"INCLINATION":53.0254,"RA_OF_ASC_NODE":76.0659,"ARG_OF_PERICENTER":33.971,"MEAN_ANOMALY":326.1559,"EPHEMERIS_TYPE":0,"CLASSIFICATION_TYPE":"U","NORAD_CAT_ID":46077,"ELEMENT_SET_NO":999,"REV_AT_EPOCH":30951,"BSTAR":0.0014778793,"MEAN_MOTION_DOT":0.00042685,"MEAN_MOTION_DDOT":0},{"OBJECT_NAME":"STARLINK-30773","OBJECT_ID":"2023-166M","EPOCH":"2026-03-09T17:10:13.084608","MEAN_MOTION":15.30190199,"ECCENTRICITY":9.712e-5,"INCLINATION":53.1593,"RA_OF_ASC_NODE":219.4473,"ARG_OF_PERICENTER":52.9742,"MEAN_ANOMALY":307.1347,"EPHEMERIS_TYPE":0,"CLASSIFICATION_TYPE":"U","NORAD_CAT_ID":58161,"ELEMENT_SET_NO":999,"REV_AT_EPOCH":13318,"BSTAR":0.00021136249,"MEAN_MOTION_DOT":5.904e-5,"MEAN_MOTION_DDOT":0}]
